NORAD_CAT_ID,OBJECT_NAME,OBJECT_TYPE,EPOCH,MEAN_MOTION,ECCENTRICITY,INCLINATION,RA_OF_ASC_NODE,ARG_OF_PERICENTER,MEAN_ANOMALY,BSTAR,MEAN_MOTION_DOT,MEAN_MOTION_DDOT,TLE_LINE0,TLE_LINE1,TLE_LINE2,SEMIMAJOR_AXIS,PERIOD,APOGEE,PERIGEE,DECAYED
52882.0,STARLINK-4181,PAYLOAD,2023-11-03 04:07:53,15.0883819,0.0001966,53.2168,263.713,99.0301,261.0914,0.0003197,4.803e-05,0.0,0 STARLINK-4181,1 52882U 22062BE  23307.17214746  .00004803  00000-0  31970-3 0  9992,2 52882  53.2168 263.7130 0001966  99.0301 261.0914 15.08838190 77109,6917.886,95.438,541.111,538.391,0.0
52882.0,STARLINK-4181,PAYLOAD,2023-11-03 13:40:12,15.08837223,0.0001909,53.2165,261.929,100.4865,259.6342,0.0002659,3.946e-05,0.0,0 STARLINK-4181,1 52882U 22062BE  23307.56958937  .00003946  00000-0  26590-3 0  9991,2 52882  53.2165 261.9290 0001909 100.4865 259.6342 15.08837223 76677,6917.889,95.438,541.075,538.433,0.0
52882.0,STARLINK-4181,PAYLOAD,2023-11-04 13:30:59,15.08843638,0.0001799,53.216,257.4709,102.2509,257.8684,0.00055061,8.487e-05,0.0,0 STARLINK-4181,1 52882U 22062BE  23308.56319009  .00008487  00000-0  55061-3 0  9993,2 52882  53.2160 257.4709 0001799 102.2509 257.8684 15.08843638 76822,6917.869,95.437,540.979,538.49,0.0
52882.0,STARLINK-4181,PAYLOAD,2023-11-05 03:49:27,15.08845031,0.000198,53.2167,254.7982,106.423,253.698,0.00024601,3.63e-05,0.0,0 STARLINK-4181,1 52882U 22062BE  23309.15934993  .00003630  00000-0  24601-3 0  9995,2 52882  53.2167 254.7982 0001980 106.4230 253.6980 15.08845031 77408,6917.865,95.437,541.1,538.36,0.0
52882.0,STARLINK-4181,PAYLOAD,2023-11-05 13:21:46,15.08855509,0.0001592,53.2157,253.0091,91.4189,268.6986,0.00036353,5.505e-05,0.0,0 STARLINK-4181,1 52882U 22062BE  23309.55678259  .00005505  00000-0  36353-3 0  9999,2 52882  53.2157 253.0091 0001592  91.4189 268.6986 15.08855509 76979,6917.833,95.437,540.799,538.597,0.0
52882.0,STARLINK-4181,PAYLOAD,2023-11-06 03:40:12,15.08897755,0.0001812,53.2152,250.3342,110.6564,249.4622,0.0013659,0.00021552,0.0,0 STARLINK-4181,1 52882U 22062BE  23310.15292313  .00021552  00000-0  13659-2 0  9993,2 52882  53.2152 250.3342 0001812 110.6564 249.4622 15.08897755 77557,6917.704,95.434,540.822,538.315,0.0
52882.0,STARLINK-4181,PAYLOAD,2023-11-06 13:12:31,15.08866133,0.0002869,53.2168,248.5523,81.9392,278.1926,0.00027673,4.122e-05,0.0,0 STARLINK-4181,1 52882U 22062BE  23310.55036858  .00004122  00000-0  27673-3 0  9993,2 52882  53.2168 248.5523 0002869  81.9392 278.1926 15.08866133 77121,6917.801,95.436,541.65,537.681,0.0
52882.0,STARLINK-4181,PAYLOAD,2023-11-07 03:31:01,15.08812404,0.0001749,53.2164,245.8746,81.5084,278.6107,-0.00080324,-0.00013039,0.0,0 STARLINK-4181,1 52882U 22062BE  23311.14654392 -.00013039  00000-0 -80324-3 0  9999,2 52882  53.2164 245.8746 0001749  81.5084 278.6107 15.08812404 77706,6917.965,95.439,541.04,538.62,0.0
52882.0,STARLINK-4181,PAYLOAD,2023-11-07 13:03:20,15.08812897,0.0001462,53.2166,244.0896,89.4694,270.6466,-0.00060646,-9.92e-05,0.0,0 STARLINK-4181,1 52882U 22062BE  23311.54398547 -.00009920  00000-0 -60646-3 0  9999,2 52882  53.2166 244.0896 0001462  89.4694 270.6466 15.08812897 77279,6917.963,95.439,540.84,538.817,0.0
52882.0,STARLINK-4181,PAYLOAD,2023-11-08 01:46:26,15.08821804,0.0001639,53.217,241.7096,85.1283,274.9897,5.4571e-05,5.8e-06,0.0,0 STARLINK-4181,1 52882U 22062BE  23312.07391363  .00000580  00000-0  54571-4 0  9999,2 52882  53.2170 241.7096 0001639  85.1283 274.9897 15.08821804 77849,6917.936,95.439,540.935,538.667,0.0
52882.0,STARLINK-4181,PAYLOAD,2023-11-08 04:57:12,15.08820235,0.0001496,53.2164,241.1145,97.0342,263.0821,8.8126e-05,1.114e-05,0.0,0 STARLINK-4181,1 52882U 22062BE  23312.20639545  .00001114  00000-0  88126-4 0  9998,2 52882  53.2164 241.1145 0001496  97.0342 263.0821 15.08820235 77371,6917.941,95.439,540.841,538.771,0.0
52882.0,STARLINK-4181,PAYLOAD,2023-11-08 22:26:26,15.08856201,0.0001565,53.2166,237.8455,84.098,276.019,0.001032,0.00016182,0.0,0 STARLINK-4181,1 52882U 22062BE  23312.93503189  .00016182  00000-0  10320-2 0  9992,2 52882  53.2166 237.8455 0001565  84.0980 276.0190 15.08856201 77487,6917.831,95.437,540.779,538.613,0.0
52882.0,STARLINK-4181,PAYLOAD,2023-11-09 01:37:12,15.08870828,0.0001388,53.2164,237.254,95.1453,264.9698,0.0013301,0.00020962,0.0,0 STARLINK-4181,1 52882U 22062BE  23313.06750753  .00020962  00000-0  13301-2 0  9991,2 52882  53.2164 237.2540 0001388  95.1453 264.9698 15.08870828 77991,6917.786,95.436,540.611,538.691,0.0
52882.0,STARLINK-4181,PAYLOAD,2023-11-09 04:47:58,15.08889518,0.0001615,53.217,236.6536,91.0373,269.0804,0.0014669,0.00023167,0.0,0 STARLINK-4181,1 52882U 22062BE  23313.19998101  .00023167  00000-0  14669-2 0  9994,2 52882  53.2170 236.6536 0001615  91.0373 269.0804 15.08889518 78010,6917.729,95.434,540.711,538.477,0.0
52882.0,STARLINK-4181,PAYLOAD,2023-11-09 22:17:13,15.08844267,0.0001654,53.2158,233.3806,111.6386,248.4783,-0.00024792,-4.232e-05,0.0,0 STARLINK-4181,1 52882U 22062BE  23313.92862439 -.00004232  00000-0 -24792-3 0  9992,2 52882  53.2158 233.3806 0001654 111.6386 248.4783 15.08844267 77632,6917.867,95.437,540.877,538.588,0.0
52882.0,STARLINK-4181,PAYLOAD,2023-11-09 23:52:36,15.08841287,0.0001308,53.2167,233.0903,86.0431,274.0711,-0.00030635,-5.16e-05,0.0,0 STARLINK-4181,1 52882U 22062BE  23313.99486634 -.00005160  00000-0 -30635-3 0  9992,2 52882  53.2167 233.0903 0001308  86.0431 274.0711 15.08841287 78130,6917.876,95.437,540.646,538.837,0.0
52882.0,STARLINK-4181,PAYLOAD,2023-11-10 06:14:08,15.08846715,0.0001596,53.2163,231.8953,113.0128,247.1033,0.0003808,5.779e-05,0.0,0 STARLINK-4181,1 52882U 22062BE  23314.25982483  .00005779  00000-0  38080-3 0  9991,2 52882  53.2163 231.8953 0001596 113.0128 247.1033 15.08846715 77688,6917.86,95.437,540.829,538.621,0.0
52882.0,STARLINK-4181,PAYLOAD,2023-11-11 01:18:47,15.08838928,0.0001372,53.2166,228.3291,89.3813,270.7336,0.0015859,0.00025041,0.0,0 STARLINK-4181,1 52882U 22062BE  23315.05471346  .00025041  00000-0  15859-2 0  9993,2 52882  53.2166 228.3291 0001372  89.3813 270.7336 15.08838928 78298,6917.884,95.438,540.698,538.8,0.0
52882.0,STARLINK-4181,PAYLOAD,2023-11-11 04:29:33,15.08848875,0.0001449,53.2166,227.733,87.6556,272.4602,0.001809,0.00028627,0.0,0 STARLINK-4181,1 52882U 22062BE  23315.18719236  .00028627  00000-0  18090-2 0  9993,2 52882  53.2166 227.7330 0001449  87.6556 272.4602 15.08848875 77820,6917.853,95.437,540.721,538.716,0.0
52882.0,STARLINK-4181,PAYLOAD,2023-11-11 21:58:48,15.08840148,0.000138,53.2154,224.4556,86.8698,273.2452,0.00059274,9.158e-05,0.0,0 STARLINK-4181,1 52882U 22062BE  23315.91583503  .00009158  00000-0  59274-3 0  9998,2 52882  53.2154 224.4556 0001380  86.8698 273.2452 15.08840148 77932,6917.88,95.438,540.7,538.79,0.0
52882.0,STARLINK-4181,PAYLOAD,2023-11-12 01:09:34,15.08835038,0.0001349,53.2163,223.8686,80.696,279.4184,0.00048942,7.509e-05,0.0,0 STARLINK-4181,1 52882U 22062BE  23316.04831669  .00007509  00000-0  48942-3 0  9990,2 52882  53.2163 223.8686 0001349  80.6960 279.4184 15.08835038 78447,6917.896,95.438,540.694,538.827,0.0
52882.0,STARLINK-4181,PAYLOAD,2023-11-12 10:41:53,15.0883561,0.0001324,53.2162,222.085,77.1954,282.9186,0.00034459,5.2e-05,0.0,0 STARLINK-4181,1 52882U 22062BE  23316.44575854  .00005200  00000-0  34459-3 0  9999,2 52882  53.2162 222.0850 0001324  77.1954 282.9186 15.08835610 78017,6917.894,95.438,540.675,538.843,0.0
52882.0,STARLINK-4181,PAYLOAD,2023-11-12 21:49:35,15.08843781,0.0001329,53.216,220.0039,78.0344,282.0797,0.0005026,7.721e-05,0.0,0 STARLINK-4181,1 52882U 22062BE  23316.90943827  .00007721  00000-0  50260-3 0  9997,2 52882  53.2160 220.0039 0001329  78.0344 282.0797 15.08843781 78084,6917.869,95.437,540.653,538.814,0.0
52882.0,STARLINK-4181,PAYLOAD,2023-11-13 02:35:44,15.08853131,0.0001405,53.2159,219.1117,77.1514,282.9635,0.00067324,0.00010447,0.0,0 STARLINK-4181,1 52882U 22062BE  23317.10815585  .00010447  00000-0  67324-3 0  9997,2 52882  53.2159 219.1117 0001405  77.1514 282.9635 15.08853131 78600,6917.84,95.437,540.677,538.733,0.0
52882.0,STARLINK-4181,PAYLOAD,2023-11-13 10:32:40,15.0884936,0.0001617,53.2163,217.6238,89.8688,270.249,0.000557,8.59e-05,0.0,0 STARLINK-4181,1 52882U 22062BE  23317.43935672  .00008590  00000-0  55700-3 0  9994,2 52882  53.2163 217.6238 0001617  89.8688 270.2490 15.08849360 78652,6917.852,95.437,540.835,538.598,0.0
52882.0,STARLINK-4181,PAYLOAD,2023-11-14 02:26:31,15.08846192,0.0001565,53.2166,214.6472,85.5257,274.5914,0.0002372,3.49e-05,0.0,0 STARLINK-4181,1 52882U 22062BE  23318.10175506  .00003490  00000-0  23720-3 0  9992,2 52882  53.2166 214.6472 0001565  85.5257 274.5914 15.08846192 78758,6917.861,95.437,540.809,538.644,0.0
52882.0,STARLINK-4181,PAYLOAD,2023-11-14 10:23:27,15.08836815,0.0001537,53.2154,213.1647,79.4176,280.6989,-1.0199e-05,-4.5e-06,0.0,0 STARLINK-4181,1 52882U 22062BE  23318.43295726 -.00000450  00000-0 -10199-4 0  9997,2 52882  53.2154 213.1647 0001537  79.4176 280.6989 15.08836815 78801,6917.89,95.438,540.818,538.692,0.0
52882.0,STARLINK-4181,PAYLOAD,2023-11-14 23:06:32,15.08839058,0.0001653,53.2163,210.7849,77.568,282.5498,3.3527e-05,2.46e-06,0.0,0 STARLINK-4181,1 52882U 22062BE  23318.96287709  .00000246  00000-0  33527-4 0  9998,2 52882  53.2163 210.7849 0001653  77.5680 282.5498 15.08839058 78398,6917.883,95.438,540.892,538.605,0.0
52882.0,STARLINK-4181,PAYLOAD,2023-11-15 02:17:19,15.08838082,0.0001524,53.216,210.1899,86.0667,274.0499,3.1134e-05,2.08e-06,0.0,0 STARLINK-4181,1 52882U 22062BE  23319.09536010  .00000208  00000-0  31134-4 0  9995,2 52882  53.2160 210.1899 0001524  86.0667 274.0499 15.08838082 78417,6917.886,95.438,540.806,538.697,0.0
52882.0,STARLINK-4181,PAYLOAD,2023-11-15 22:57:19,15.08843997,0.0001486,53.2159,206.3236,86.4201,273.6961,0.00022232,3.252e-05,0.0,0 STARLINK-4181,1 52882U 22062BE  23319.95647956  .00003252  00000-0  22232-3 0  9992,2 52882  53.2159 206.3236 0001486  86.4201 273.6961 15.08843997 78546,6917.868,95.437,540.761,538.705,0.0
